CCSDS_OMM_VERS = 2.0
CREATION_DATE  = 
ORIGINATOR     = 

OBJECT_NAME    = ATLAS CENTAUR R/B
OBJECT_ID      = 1972-065B
CENTER_NAME    = EARTH
REF_FRAME      = TEME
TIME_SYSTEM    = UTC
MEAN_ELEMENT_THEORY = SGP/SGP4

EPOCH          = 2026-02-28T12:06:10.688832
MEAN_MOTION    = 14.77656073
ECCENTRICITY   = .0034408
INCLINATION    = 35.0029
RA_OF_ASC_NODE = 359.5814
ARG_OF_PERICENTER = 292.2875
MEAN_ANOMALY   = 67.4179

EPHEMERIS_TYPE = 0
CLASSIFICATION_TYPE = U
NORAD_CAT_ID   = 6155
ELEMENT_SET_NO = 999
REV_AT_EPOCH   = 83990
BSTAR          = .20875E-3
MEAN_MOTION_DOT = .151E-4
MEAN_MOTION_DDOT = 0

CCSDS_OMM_VERS = 2.0
CREATION_DATE  = 
ORIGINATOR     = 

OBJECT_NAME    = SL-8 R/B
OBJECT_ID      = 1975-112B
CENTER_NAME    = EARTH
REF_FRAME      = TEME
TIME_SYSTEM    = UTC
MEAN_ELEMENT_THEORY = SGP/SGP4

EPOCH          = 2026-02-28T16:03:24.406272
MEAN_MOTION    = 14.38197365
ECCENTRICITY   = .0014648
INCLINATION    = 74.0609
RA_OF_ASC_NODE = 35.5052
ARG_OF_PERICENTER = 132.3555
MEAN_ANOMALY   = 227.8843

EPHEMERIS_TYPE = 0
CLASSIFICATION_TYPE = U
NORAD_CAT_ID   = 8459
ELEMENT_SET_NO = 999
REV_AT_EPOCH   = 63057
BSTAR          = .82219E-4
MEAN_MOTION_DOT = .224E-5
MEAN_MOTION_DDOT = 0

CCSDS_OMM_VERS = 2.0
CREATION_DATE  = 
ORIGINATOR     = 

OBJECT_NAME    = SL-3 R/B
OBJECT_ID      = 1977-057B
CENTER_NAME    = EARTH
REF_FRAME      = TEME
TIME_SYSTEM    = UTC
MEAN_ELEMENT_THEORY = SGP/SGP4

EPOCH          = 2026-02-28T18:47:42.653184
MEAN_MOTION    = 15.45195286
ECCENTRICITY   = .0006541
INCLINATION    = 97.5753
RA_OF_ASC_NODE = 231.3146
ARG_OF_PERICENTER = 322.0908
MEAN_ANOMALY   = 37.9879

EPHEMERIS_TYPE = 0
CLASSIFICATION_TYPE = U
NORAD_CAT_ID   = 10114
ELEMENT_SET_NO = 999
REV_AT_EPOCH   = 66695
BSTAR          = .29642E-3
MEAN_MOTION_DOT = .13992E-3
MEAN_MOTION_DDOT = 0

CCSDS_OMM_VERS = 2.0
CREATION_DATE  = 
ORIGINATOR     = 

OBJECT_NAME    = SEASAT 1
OBJECT_ID      = 1978-064A
CENTER_NAME    = EARTH
REF_FRAME      = TEME
TIME_SYSTEM    = UTC
MEAN_ELEMENT_THEORY = SGP/SGP4

EPOCH          = 2026-02-28T20:23:22.465248
MEAN_MOTION    = 14.46152222
ECCENTRICITY   = .0002085
INCLINATION    = 108.0132
RA_OF_ASC_NODE = 106.9493
ARG_OF_PERICENTER = 289.2919
MEAN_ANOMALY   = 70.8001

EPHEMERIS_TYPE = 0
CLASSIFICATION_TYPE = U
NORAD_CAT_ID   = 10967
ELEMENT_SET_NO = 999
REV_AT_EPOCH   = 50523
BSTAR          = .10672E-3
MEAN_MOTION_DOT = .244E-5
MEAN_MOTION_DDOT = 0

CCSDS_OMM_VERS = 2.0
CREATION_DATE  = 
ORIGINATOR     = 

OBJECT_NAME    = SL-14 R/B
OBJECT_ID      = 1979-011B
CENTER_NAME    = EARTH
REF_FRAME      = TEME
TIME_SYSTEM    = UTC
MEAN_ELEMENT_THEORY = SGP/SGP4

EPOCH          = 2026-02-28T14:14:01.800960
MEAN_MOTION    = 14.91895607
ECCENTRICITY   = .001765
INCLINATION    = 82.5220
RA_OF_ASC_NODE = 105.2044
ARG_OF_PERICENTER = 88.3474
MEAN_ANOMALY   = 271.9767

EPHEMERIS_TYPE = 0
CLASSIFICATION_TYPE = U
NORAD_CAT_ID   = 11267
ELEMENT_SET_NO = 999
REV_AT_EPOCH   = 52742
BSTAR          = .53475E-4
MEAN_MOTION_DOT = .568E-5
MEAN_MOTION_DDOT = 0

CCSDS_OMM_VERS = 2.0
CREATION_DATE  = 
ORIGINATOR     = 

OBJECT_NAME    = SL-8 R/B
OBJECT_ID      = 1979-089B
CENTER_NAME    = EARTH
REF_FRAME      = TEME
TIME_SYSTEM    = UTC
MEAN_ELEMENT_THEORY = SGP/SGP4

EPOCH          = 2026-02-28T14:09:40.075488
MEAN_MOTION    = 14.42343676
ECCENTRICITY   = .0017071
INCLINATION    = 74.0675
RA_OF_ASC_NODE = 107.8897
ARG_OF_PERICENTER = 281.4641
MEAN_ANOMALY   = 78.4598

EPHEMERIS_TYPE = 0
CLASSIFICATION_TYPE = U
NORAD_CAT_ID   = 11574
ELEMENT_SET_NO = 999
REV_AT_EPOCH   = 43479
BSTAR          = .73853E-4
MEAN_MOTION_DOT = .218E-5
MEAN_MOTION_DDOT = 0

CCSDS_OMM_VERS = 2.0
CREATION_DATE  = 
ORIGINATOR     = 

OBJECT_NAME    = SL-14 R/B
OBJECT_ID      = 1980-005B
CENTER_NAME    = EARTH
REF_FRAME      = TEME
TIME_SYSTEM    = UTC
MEAN_ELEMENT_THEORY = SGP/SGP4

EPOCH          = 2026-02-28T17:37:27.434784
MEAN_MOTION    = 14.90917691
ECCENTRICITY   = .0015381
INCLINATION    = 82.5161
RA_OF_ASC_NODE = 315.7300
ARG_OF_PERICENTER = 187.7618
MEAN_ANOMALY   = 172.3365

EPHEMERIS_TYPE = 0
CLASSIFICATION_TYPE = U
NORAD_CAT_ID   = 11672
ELEMENT_SET_NO = 999
REV_AT_EPOCH   = 47515
BSTAR          = .60451E-4
MEAN_MOTION_DOT = .623E-5
MEAN_MOTION_DDOT = 0

CCSDS_OMM_VERS = 2.0
CREATION_DATE  = 
ORIGINATOR     = 

OBJECT_NAME    = SL-8 R/B
OBJECT_ID      = 1981-003B
CENTER_NAME    = EARTH
REF_FRAME      = TEME
TIME_SYSTEM    = UTC
MEAN_ELEMENT_THEORY = SGP/SGP4

EPOCH          = 2026-02-28T17:27:58.051008
MEAN_MOTION    = 15.10578236
ECCENTRICITY   = .0262779
INCLINATION    = 82.9403
RA_OF_ASC_NODE = 298.3091
ARG_OF_PERICENTER = 209.7645
MEAN_ANOMALY   = 148.8422

EPHEMERIS_TYPE = 0
CLASSIFICATION_TYPE = U
NORAD_CAT_ID   = 12139
ELEMENT_SET_NO = 999
REV_AT_EPOCH   = 31332
BSTAR          = .43816E-3
MEAN_MOTION_DOT = .16899E-3
MEAN_MOTION_DDOT = 0

CCSDS_OMM_VERS = 2.0
CREATION_DATE  = 
ORIGINATOR     = 

OBJECT_NAME    = SL-3 R/B
OBJECT_ID      = 1981-046B
CENTER_NAME    = EARTH
REF_FRAME      = TEME
TIME_SYSTEM    = UTC
MEAN_ELEMENT_THEORY = SGP/SGP4

EPOCH          = 2026-02-28T18:19:45.853824
MEAN_MOTION    = 15.41722462
ECCENTRICITY   = .0020289
INCLINATION    = 81.2321
RA_OF_ASC_NODE = 300.4603
ARG_OF_PERICENTER = 52.3316
MEAN_ANOMALY   = 307.9762

EPHEMERIS_TYPE = 0
CLASSIFICATION_TYPE = U
NORAD_CAT_ID   = 12465
ELEMENT_SET_NO = 999
REV_AT_EPOCH   = 43705
BSTAR          = .31321E-3
MEAN_MOTION_DOT = .1336E-3
MEAN_MOTION_DDOT = 0

CCSDS_OMM_VERS = 2.0
CREATION_DATE  = 
ORIGINATOR     = 

OBJECT_NAME    = SL-3 R/B
OBJECT_ID      = 1981-103B
CENTER_NAME    = EARTH
REF_FRAME      = TEME
TIME_SYSTEM    = UTC
MEAN_ELEMENT_THEORY = SGP/SGP4

EPOCH          = 2026-02-28T19:51:05.001408
MEAN_MOTION    = 15.21245604
ECCENTRICITY   = .0012685
INCLINATION    = 81.1565
RA_OF_ASC_NODE = 223.8284
ARG_OF_PERICENTER = 318.3979
MEAN_ANOMALY   = 41.6286

EPHEMERIS_TYPE = 0
CLASSIFICATION_TYPE = U
NORAD_CAT_ID   = 12904
ELEMENT_SET_NO = 999
REV_AT_EPOCH   = 97188
BSTAR          = .23713E-3
MEAN_MOTION_DOT = .533E-4
MEAN_MOTION_DDOT = 0

CCSDS_OMM_VERS = 2.0
CREATION_DATE  = 
ORIGINATOR     = 

OBJECT_NAME    = SL-3 R/B
OBJECT_ID      = 1982-013B
CENTER_NAME    = EARTH
REF_FRAME      = TEME
TIME_SYSTEM    = UTC
MEAN_ELEMENT_THEORY = SGP/SGP4

EPOCH          = 2026-02-28T18:33:26.111232
MEAN_MOTION    = 15.21905439
ECCENTRICITY   = .0022211
INCLINATION    = 81.1766
RA_OF_ASC_NODE = 171.2179
ARG_OF_PERICENTER = 207.7163
MEAN_ANOMALY   = 152.2887

EPHEMERIS_TYPE = 0
CLASSIFICATION_TYPE = U
NORAD_CAT_ID   = 13068
ELEMENT_SET_NO = 999
REV_AT_EPOCH   = 40299
BSTAR          = .2508E-3
MEAN_MOTION_DOT = .5773E-4
MEAN_MOTION_DDOT = 0

CCSDS_OMM_VERS = 2.0
CREATION_DATE  = 
ORIGINATOR     = 

OBJECT_NAME    = SL-3 R/B
OBJECT_ID      = 1982-039B
CENTER_NAME    = EARTH
REF_FRAME      = TEME
TIME_SYSTEM    = UTC
MEAN_ELEMENT_THEORY = SGP/SGP4

EPOCH          = 2026-02-28T20:15:05.668704
MEAN_MOTION    = 15.10018600
ECCENTRICITY   = .002991
INCLINATION    = 81.1582
RA_OF_ASC_NODE = 226.1600
ARG_OF_PERICENTER = 353.3122
MEAN_ANOMALY   = 6.7699

EPHEMERIS_TYPE = 0
CLASSIFICATION_TYPE = U
NORAD_CAT_ID   = 13154
ELEMENT_SET_NO = 999
REV_AT_EPOCH   = 38030
BSTAR          = .17296E-3
MEAN_MOTION_DOT = .2863E-4
MEAN_MOTION_DDOT = 0

