ATLAS CENTAUR R/B       
1 06155U 72065B   26059.50429038  .00001510  00000+0  20875-3 0  9991
2 06155  35.0029 359.5814 0034408 292.2875  67.4179 14.77656073839906
SL-8 R/B                
1 08459U 75112B   26059.66903248  .00000224  00000+0  82219-4 0  9995
2 08459  74.0609  35.5052 0014648 132.3555 227.8843 14.38197365630573
SL-3 R/B                
1 10114U 77057B   26059.78313256  .00013992  00000+0  29642-3 0  9999
2 10114  97.5753 231.3146 0006541 322.0908  37.9879 15.45195286666956
SEASAT 1                
1 10967U 78064A   26059.84956557  .00000244  00000+0  10672-3 0  9997
2 10967 108.0132 106.9493 0002085 289.2919  70.8001 14.46152222505237
SL-14 R/B               
1 11267U 79011B   26059.59307640  .00000568  00000+0  53475-4 0  9997
2 11267  82.5220 105.2044 0017650  88.3474 271.9767 14.91895607527426
SL-8 R/B                
1 11574U 79089B   26059.59004717  .00000218  00000+0  73853-4 0  9996
2 11574  74.0675 107.8897 0017071 281.4641  78.4598 14.42343676434799
SL-14 R/B               
1 11672U 80005B   26059.73434531  .00000623  00000+0  60451-4 0  9992
2 11672  82.5161 315.7300 0015381 187.7618 172.3365 14.90917691475153
SL-8 R/B                
1 12139U 81003B   26059.72775522  .00016899  00000+0  43816-3 0  9994
2 12139  82.9403 298.3091 0262779 209.7645 148.8422 15.10578236313321
SL-3 R/B                
1 12465U 81046B   26059.76372516  .00013360  00000+0  31321-3 0  9991
2 12465  81.2321 300.4603 0020289  52.3316 307.9762 15.41722462437051
SL-3 R/B                
1 12904U 81103B   26059.82714122  .00005330  00000+0  23713-3 0  9997
2 12904  81.1565 223.8284 0012685 318.3979  41.6286 15.21245604971885
SL-3 R/B                
1 13068U 82013B   26059.77321888  .00005773  00000+0  25080-3 0  9997
2 13068  81.1766 171.2179 0022211 207.7163 152.2887 15.21905439402997
SL-3 R/B                
1 13154U 82039B   26059.84381561  .00002863  00000+0  17296-3 0  9990
2 13154  81.1582 226.1600 0029910 353.3122   6.7699 15.10018600380301
